[{"OBJECT_NAME":"STARLINK-4689","OBJECT_ID":"2022-104C","EPOCH":"2026-03-09T21:36:07.783776","MEAN_MOTION":15.08840101,"ECCENTRICITY":0.00013714,"INCLINATION":53.2176,"RA_OF_ASC_NODE":243.3854,"ARG_OF_PERICENTER":107.4665,"MEAN_ANOMALY":252.6477,"EPHEMERIS_TYPE":0,"CLASSIFICATION_TYPE":"U","NORAD_CAT_ID":53590,"ELEMENT_SET_NO":999,"REV_AT_EPOCH":19599,"BSTAR":2.739638e-6,"MEAN_MOTION_DOT":-2.44e-6,"MEAN_MOTION_DDOT":0},{"OBJECT_NAME":"CZ-6A DEB","OBJECT_ID":"2024-126C","EPOCH":"2026-03-09T22:45:09.534528","MEAN_MOTION":15.08339588,"ECCENTRICITY":0.00034995,"INCLINATION":97.8272,"RA_OF_ASC_NODE":88.0703,"ARG_OF_PERICENTER":249.9832,"MEAN_ANOMALY":110.1019,"EPHEMERIS_TYPE":0,"CLASSIFICATION_TYPE":"U","NORAD_CAT_ID":60213,"ELEMENT_SET_NO":999,"REV_AT_EPOCH":9177,"BSTAR":0.0010886629,"MEAN_MOTION_DOT":0.00016868,"MEAN_MOTION_DDOT":0}]
